{"type": "FeatureCollection", "features": [ {"type": "Feature", "properties": {"norad_id": 41011, "name": "FENGYUN 1C DEB", "group": "fengyun-1c-debris", "lat": -50.01044830735433, "lon": -144.6404516317401, "alt_km": 736.9597149230958, "timestamp": "2025-12-26T09:30:53.928767+00:00", "meta": {"OBJECT_NAME": "FENGYUN 1C DEB", "OBJECT_ID": "1999-025EXR", "EPOCH": "2025-12-23T20:30:46.247616", "MEAN_MOTION": 14.42971366, "ECCENTRICITY": 0.0309356, "INCLINATION": 99.1668, "RA_OF_ASC_NODE": 43.7219, "ARG_OF_PERICENTER": 325.2752, "MEAN_ANOMALY": 32.8581, "EPHEMERIS_TYPE": 0, "CLASSIFICATION_TYPE": "U", "NORAD_CAT_ID": 41011, "ELEMENT_SET_NO": 999, "REV_AT_EPOCH": 57317, "BSTAR": 0.00060457, "MEAN_MOTION_DOT": 3.552e-05, "MEAN_MOTION_DDOT": 0}, "tle": {"line1": "1 41011U 99025EXR 25357.85470194  .00003552  00000+0  60457-3 0  9991", "line2": "2 41011  99.1668  43.7219 0309356 325.2752  32.8581 14.42971366573179"}}, "geometry": {"type": "Point", "coordinates": [-144.6404516317401, -50.01044830735433]}}, {"type": "Feature", "properties": {"norad_id": 41018, "name": "FENGYUN 1C DEB", "group": "fengyun-1c-debris", "lat": 70.65306933966014, "lon": -85.12578185960288, "alt_km": 833.8632879382376, "timestamp": "2025-12-26T09:30:53.928777+00:00", "meta": {"OBJECT_NAME": "FENGYUN 1C DEB", "OBJECT_ID": "1999-025EXY", "EPOCH": "2025-12-15T01:30:35.121600", "MEAN_MOTION": 13.52371588, "ECCENTRICITY": 0.03049079, "INCLINATION": 99.9356, "RA_OF_ASC_NODE": 293.4577, "ARG_OF_PERICENTER": 112.862, "MEAN_ANOMALY": 250.5013, "EPHEMERIS_TYPE": 0, "CLASSIFICATION_TYPE": "U", "NORAD_CAT_ID": 41018, "ELEMENT_SET_NO": 999, "REV_AT_EPOCH": 88206, "BSTAR": 0.0022149287, "MEAN_MOTION_DOT": 1.917e-05, "MEAN_MOTION_DDOT": 0}, "tle": {"line1": "1 41018U 99025EXY 25349.06290650  .00001917  00000+0  22149-2 0  9997", "line2": "2 41018  99.9356 293.4577 0304907 112.8620 250.5013 13.52371588882060"}}, "geometry": {"type": "Point", "coordinates": [-85.12578185960288, 70.65306933966014]}}, {"type": "Feature", "properties": {"norad_id": 41822, "name": "FENGYUN 1C DEB", "group": "fengyun-1c-debris", "lat": 68.64728952008298, "lon": 43.385497884024986, "alt_km": 816.5293435218982, "timestamp": "2025-12-26T09:30:53.928787+00:00", "meta": {"OBJECT_NAME": "FENGYUN 1C DEB", "OBJECT_ID": "1999-025EXZ", "EPOCH": "2025-12-25T02:50:49.957728", "MEAN_MOTION": 14.24883906, "ECCENTRICITY": 0.00559815, "INCLINATION": 98.731, "RA_OF_ASC_NODE": 65.2613, "ARG_OF_PERICENTER": 185.4184, "MEAN_ANOMALY": 174.6396, "EPHEMERIS_TYPE": 0, "CLASSIFICATION_TYPE": "U", "NORAD_CAT_ID": 41822, "ELEMENT_SET_NO": 999, "REV_AT_EPOCH": 47549, "BSTAR": 0.0016186489, "MEAN_MOTION_DOT": 3.8e-05, "MEAN_MOTION_DDOT": 0}, "tle": {"line1": "1 41822U 99025EXZ 25359.11863377  .00003800  00000+0  16186-2 0  9996", "line2": "2 41822  98.7310  65.2613 0055981 185.4184 174.6396 14.24883906475499"}}, "geometry": {"type": "Point", "coordinates": [43.385497884024986, 68.64728952008298]}}, {"type": "Feature", "properties": {"norad_id": 41823, "name": "FENGYUN 1C DEB", "group": "fengyun-1c-debris", "lat": 75.60782190791569, "lon": 26.873245533990826, "alt_km": 819.8473478378419, "timestamp": "2025-12-26T09:30:53.928797+00:00", "meta": {"OBJECT_NAME": "FENGYUN 1C DEB", "OBJECT_ID": "1999-025EYA", "EPOCH": "2025-12-26T02:23:49.238016", "MEAN_MOTION": 14.23603508, "ECCENTRICITY": 0.0055343, "INCLINATION": 98.7191, "RA_OF_ASC_NODE": 63.3082, "ARG_OF_PERICENTER": 190.0589, "MEAN_ANOMALY": 169.9486, "EPHEMERIS_TYPE": 0, "CLASSIFICATION_TYPE": "U", "NORAD_CAT_ID": 41823, "ELEMENT_SET_NO": 999, "REV_AT_EPOCH": 47548, "BSTAR": 0.0014184, "MEAN_MOTION_DOT": 3.24e-05, "MEAN_MOTION_DDOT": 0}, "tle": {"line1": "1 41823U 99025EYA 25360.09987544  .00003240  00000+0  14184-2 0  9993", "line2": "2 41823  98.7191  63.3082 0055343 190.0589 169.9486 14.23603508475482"}}, "geometry": {"type": "Point", "coordinates": [26.873245533990826, 75.60782190791569]}}, {"type": "Feature", "properties": {"norad_id": 41824, "name": "FENGYUN 1C DEB", "group": "fengyun-1c-debris", "lat": -23.427758017066253, "lon": 68.15072103736831, "alt_km": 851.6747949122246, "timestamp": "2025-12-26T09:30:53.928808+00:00", "meta": {"OBJECT_NAME": "FENGYUN 1C DEB", "OBJECT_ID": "1999-025EYB", "EPOCH": "2025-12-25T15:04:50.435328", "MEAN_MOTION": 14.24251366, "ECCENTRICITY": 0.0058022, "INCLINATION": 98.7299, "RA_OF_ASC_NODE": 63.5702, "ARG_OF_PERICENTER": 190.7204, "MEAN_ANOMALY": 169.2742, "EPHEMERIS_TYPE": 0, "CLASSIFICATION_TYPE": "U", "NORAD_CAT_ID": 41824, "ELEMENT_SET_NO": 999, "REV_AT_EPOCH": 47543, "BSTAR": 0.001558, "MEAN_MOTION_DOT": 3.615e-05, "MEAN_MOTION_DDOT": 0}, "tle": {"line1": "1 41824U 99025EYB 25359.62836152  .00003615  00000+0  15580-2 0  9996", "line2": "2 41824  98.7299  63.5702 0058022 190.7204 169.2742 14.24251366475436"}}, "geometry": {"type": "Point", "coordinates": [68.15072103736831, -23.427758017066253]}}, {"type": "Feature", "properties": {"norad_id": 41825, "name": "FENGYUN 1C DEB", "group": "fengyun-1c-debris", "lat": -64.11941452195182, "lon": -129.1117703078656, "alt_km": 796.9282020627325, "timestamp": "2025-12-26T09:30:53.928818+00:00", "meta": {"OBJECT_NAME": "FENGYUN 1C DEB", "OBJECT_ID": "1999-025EYC", "EPOCH": "2025-12-25T03:43:29.620416", "MEAN_MOTION": 14.25180485, "ECCENTRICITY": 0.00563177, "INCLINATION": 98.7406, "RA_OF_ASC_NODE": 68.1399, "ARG_OF_PERICENTER": 185.371, "MEAN_ANOMALY": 174.6872, "EPHEMERIS_TYPE": 0, "CLASSIFICATION_TYPE": "U", "NORAD_CAT_ID": 41825, "ELEMENT_SET_NO": 999, "REV_AT_EPOCH": 47525, "BSTAR": 0.0016517064, "MEAN_MOTION_DOT": 3.901e-05, "MEAN_MOTION_DDOT": 0}, "tle": {"line1": "1 41825U 99025EYC 25359.15520394  .00003901  00000+0  16517-2 0  9992", "line2": "2 41825  98.7406  68.1399 0056317 185.3710 174.6872 14.25180485475255"}}, "geometry": {"type": "Point", "coordinates": [-129.1117703078656, -64.11941452195182]}}, {"type": "Feature", "properties": {"norad_id": 41826, "name": "FENGYUN 1C DEB", "group": "fengyun-1c-debris", "lat": 29.46782185711056, "lon": -108.92136354869393, "alt_km": 777.4951643511613, "timestamp": "2025-12-26T09:30:53.928828+00:00", "meta": {"OBJECT_NAME": "FENGYUN 1C DEB", "OBJECT_ID": "1999-025EYD", "EPOCH": "2025-12-17T15:40:24.664800", "MEAN_MOTION": 14.23780201, "ECCENTRICITY": 0.00560806, "INCLINATION": 98.7338, "RA_OF_ASC_NODE": 57.4138, "ARG_OF_PERICENTER": 209.4871, "MEAN_ANOMALY": 150.3141, "EPHEMERIS_TYPE": 0, "CLASSIFICATION_TYPE": "U", "NORAD_CAT_ID": 41826, "ELEMENT_SET_NO": 999, "REV_AT_EPOCH": 47430, "BSTAR": 0.0011247822, "MEAN_MOTION_DOT": 2.57e-05, "MEAN_MOTION_DDOT": 0}, "tle": {"line1": "1 41826U 99025EYD 25351.65306325  .00002570  00000+0  11248-2 0  9993", "line2": "2 41826  98.7338  57.4138 0056080 209.4871 150.3141 14.23780201474300"}}, "geometry": {"type": "Point", "coordinates": [-108.92136354869393, 29.46782185711056]}}, {"type": "Feature", "properties": {"norad_id": 41827, "name": "FENGYUN 1C DEB", "group": "fengyun-1c-debris", "lat": 58.385605293740745, "lon": -95.96758577663152, "alt_km": 777.0214892033528, "timestamp": "2025-12-26T09:30:53.928838+00:00", "meta": {"OBJECT_NAME": "FENGYUN 1C DEB", "OBJECT_ID": "1999-025EYE", "EPOCH": "2025-12-26T03:53:43.342080", "MEAN_MOTION": 14.25373397, "ECCENTRICITY": 0.0058726, "INCLINATION": 98.7418, "RA_OF_ASC_NODE": 69.3236, "ARG_OF_PERICENTER": 175.8454, "MEAN_ANOMALY": 184.3224, "EPHEMERIS_TYPE": 0, "CLASSIFICATION_TYPE": "U", "NORAD_CAT_ID": 41827, "ELEMENT_SET_NO": 999, "REV_AT_EPOCH": 47522, "BSTAR": 0.0015798, "MEAN_MOTION_DOT": 3.75e-05, "MEAN_MOTION_DDOT": 0}, "tle": {"line1": "1 41827U 99025EYE 25360.16230720  .00003750  00000+0  15798-2 0  9990", "line2": "2 41827  98.7418  69.3236 0058726 175.8454 184.3224 14.25373397475220"}}, "geometry": {"type": "Point", "coordinates": [-95.96758577663152, 58.385605293740745]}}, {"type": "Feature", "properties": {"norad_id": 41828, "name": "FENGYUN 1C DEB", "group": "fengyun-1c-debris", "lat": -61.50132180800619, "lon": -67.53513435022764, "alt_km": 733.1009068339299, "timestamp": "2025-12-26T09:30:53.928848+00:00", "meta": {"OBJECT_NAME": "FENGYUN 1C DEB", "OBJECT_ID": "1999-025EYF", "EPOCH": "2025-12-23T07:38:21.156288", "MEAN_MOTION": 14.52047113, "ECCENTRICITY": 0.00373451, "INCLINATION": 98.9241, "RA_OF_ASC_NODE": 126.0186, "ARG_OF_PERICENTER": 145.7037, "MEAN_ANOMALY": 214.6578, "EPHEMERIS_TYPE": 0, "CLASSIFICATION_TYPE": "U", "NORAD_CAT_ID": 41828, "ELEMENT_SET_NO": 999, "REV_AT_EPOCH": 47617, "BSTAR": 0.0043737827, "MEAN_MOTION_DOT": 0.00017841, "MEAN_MOTION_DDOT": 0}, "tle": {"line1": "1 41828U 99025EYF 25357.31830042  .00017841  00000+0  43738-2 0  9998", "line2": "2 41828  98.9241 126.0186 0037345 145.7037 214.6578 14.52047113476177"}}, "geometry": {"type": "Point", "coordinates": [-67.53513435022764, -61.50132180800619]}}, {"type": "Feature", "properties": {"norad_id": 41829, "name": "FENGYUN 1C DEB", "group": "fengyun-1c-debris", "lat": -77.30373030802532, "lon": -153.51953566460278, "alt_km": 808.1591249976391, "timestamp": "2025-12-26T09:30:53.928858+00:00", "meta": {"OBJECT_NAME": "FENGYUN 1C DEB", "OBJECT_ID": "1999-025EYG", "EPOCH": "2025-12-25T03:39:15.759072", "MEAN_MOTION": 14.25203184, "ECCENTRICITY": 0.0056952, "INCLINATION": 98.7427, "RA_OF_ASC_NODE": 68.3225, "ARG_OF_PERICENTER": 183.7772, "MEAN_ANOMALY": 176.2985, "EPHEMERIS_TYPE": 0, "CLASSIFICATION_TYPE": "U", "NORAD_CAT_ID": 41829, "ELEMENT_SET_NO": 999, "REV_AT_EPOCH": 47484, "BSTAR": 0.0015056, "MEAN_MOTION_DOT": 3.555e-05, "MEAN_MOTION_DDOT": 0}, "tle": {"line1": "1 41829U 99025EYG 25359.15226573  .00003555  00000+0  15056-2 0  9990", "line2": "2 41829  98.7427  68.3225 0056952 183.7772 176.2985 14.25203184474846"}}, "geometry": {"type": "Point", "coordinates": [-153.51953566460278, -77.30373030802532]}}]}